0 DELTA 1 DEB
1 29185U 68002J   13286.98099321 -.00000040  00000-0  10000-3 0  1678
2 29185 105.8353 337.4726 0255496 348.6188 011.8755 13.13300334458053
0 DELTA 1 DEB
1 29185U 68002J   13293.02305853  .00001537  00000-0  37263-2 0  1682
2 29185 105.8077 346.4165 0263421 337.0101 139.8597 13.13335830458848
